#aV2007  2  5  0  0   .00000000      96 DD+AD WGS84 FIT  NGA
## 1413  86400.00000000   900.00000000 54136  .0000000000000
+   30     1  2  3  4  5  6  7  8  9 10 11 12 13 14 16 17 18
+         19 20 21 22 23 24 25 26 27 28 29 30 31  0  0  0  0
+          0  0  0  0  0  0  0  0  0  0  0  0  0  0  0  0  0
+          0  0  0  0  0  0  0  0  0  0  0  0  0  0  0  0  0
+          0  0  0  0  0  0  0  0  0  0  0  0  0  0  0  0  0
++         0  0  0  0  0  0  0  0  0  0  0  0  0  0  0  0  0
++         0  0  0  0  0  0  0  0  0  0  0  0  0  0  0  0  0
++         0  0  0  0  0  0  0  0  0  0  0  0  0  0  0  0  0
++         0  0  0  0  0  0  0  0  0  0  0  0  0  0  0  0  0
++         0  0  0  0  0  0  0  0  0  0  0  0  0  0  0  0  0
%c cc cc ccc ccc cccc cccc cccc cccc ccccc ccccc ccccc ccccc
%c cc cc ccc ccc cccc cccc cccc cccc ccccc ccccc ccccc ccccc
%f  0.0000000  0.000000000  0.00000000000  0.000000000000000
%f  0.0000000  0.000000000  0.00000000000  0.000000000000000
%i    0    0    0    0      0      0      0      0         0
%i    0    0    0    0      0      0      0      0         0
/*      NGA, ST. LOUIS,MO.                                  
/*   EPHEMERIS COMPUTED FROM  3 DAYS OF DATA                
/* CCCCCCCCCCCCCCCCCCCCCCCCCCCCCCCCCCCCCCCCCCCCCCCCCCCCCCCCC
/* CCCCCCCCCCCCCCCCCCCCCCCCCCCCCCCCCCCCCCCCCCCCCCCCCCCCCCCCC
*  2007  2  5 10 30   .00000000                                                 
P  1  13850.575685  -5038.262600 -21882.975326    105.886357                    
V  1   3834.407530  27954.879563  -4028.434657       .023418                    
P  2 -22448.574475  12014.600105  -7319.871011     79.643929                    
V  2   4859.206929  -8309.494545 -29735.917257       .033556                    
P  3  13482.746802  -9416.588395  20605.831069      8.957167                    
V  3   8084.463246  25594.152353   6671.517181       .059397                    
P  4 -20299.931064    328.746943 -17373.929253      2.179481                    
V  4  15899.560410 -15073.713556 -18568.414781       .021749                    
P  5  -1524.481358  15864.224600 -21490.374469     29.269855                    
V  5 -25938.264365  -6808.708044  -3070.412311       .083898                    
P  6   6583.969012  25665.320379   1544.568373      6.377523                    
V  6  -3271.266062   2482.329259 -31088.073754       .276747                    
P  7   9357.495562  24429.263670   4667.424988    425.383261                    
V  7  -2195.414789   6227.082624 -30475.121839      -.118269                    
P  8 -13220.303194  -8179.023018  21476.195401    -95.647695                    
V  8  21648.160293 -16857.376736   6446.250761      -.013914                    
P  9 -13100.030618  21015.479144  -9850.092450     56.240436                    
V  9 -10387.358153   6028.053389  28584.077029       .016817                    
P 10 -20381.399166   4166.439623  16594.358743     96.987010                    
V 10 -19112.004391  -9108.278220 -20732.928495       .005445                    
P 11   9467.300772 -22752.763523  -9631.752280      6.142502                    
V 11  11492.275737  -6361.682926  26894.077628       .013243                    
P 12  -3538.725478  14798.151917 -21665.263997    -54.106011                    
V 12 -26145.391010  -9331.477476  -2052.042720       .043465                    
P 13  -6568.047808 -25338.081576   4560.512235    140.286716                    
V 13    863.909859  -6060.479601 -31748.342825       .040665                    
P 14  14254.911016  12738.388702 -18384.338755      7.130098                    
V 14   2542.234365  23314.047159  17977.284429       .013046                    
P 16  23792.084450    133.744752  12021.734331    119.343106                    
V 16  13323.159295   7398.458090 -26503.765795       .036736                    
P 17 -14886.136427 -12880.534864 -17886.469962     79.860760                    
V 17  -2241.776103 -22612.143270  18034.856268      -.014108                    
P 18  16284.328838  16760.591877  13054.026881   -253.811215                    
V 18 -15830.533708  -4253.445531  25150.273665       .001063                    
P 19   9395.317903 -18875.467869  16188.470570      1.463873                    
V 19   4195.490827  20090.901253  21209.056549       .042059                    
P 20   1064.450326 -15749.284878 -21460.166668    -22.237064                    
V 20  25643.127781   8600.412540  -5018.547730      -.001668                    
P 21   7490.289866  13950.366507  21378.094711     70.464175                    
V 21 -21715.706053  16141.203021  -3494.310709       .010159                    
P 22  23648.461075  11899.139941   2424.580460    165.852204                    
V 22  -3848.906756   1668.743077  31361.290709       .018592                    
P 23    166.209948 -25628.772927  -6656.361850    148.712391                    
V 23   3953.048400   7822.429556 -30564.979697       .015599                    
P 24 -13855.207579  20117.203354  11027.100518     74.753862                    
V 24 -12229.729856   6362.342256 -27153.962187       .032647                    
P 25  21518.509934 -12261.629316  -9448.332082    358.488709                    
V 25  -6959.750969  10707.385811 -28404.887635      -.150891                    
P 26  -9014.855952  17282.123556  17341.719752    -28.401784                    
V 26  -4768.087752 -22565.243733  20099.489549      -.182639                    
P 27  -5468.415250 -15447.519535  21497.924572     92.440186                    
V 27  19302.949056 -17236.514091  -7974.448097       .021647                    
P 28 -22125.822499 -13638.771672   6628.342937      8.028404                    
V 28   8222.717810    730.448637  30066.777505      -.007472                    
P 29 -11182.299067  13261.024708  20227.852658    340.086427                    
V 29  -5321.352252 -24676.264863  13721.240800       .120222                    
P 30   9388.266036  17037.723648 -18435.873023     24.535480                    
V 30 -22174.321272  -5545.608257 -16582.181093       .010445                    
P 31  20981.842563  -3230.961163 -15793.705040      4.892355                    
V 31 -14345.933151  14641.135105 -21722.940155       .043409                    
EOF
